STARLINK-35501          
1 66436U 25259Q   25340.69792167  .00141011  00000+0  23641-2 0  9994
2 66436  43.0008  82.6107 0001414 280.4896  79.5804 15.50605966  5239
STARLINK-35474          
1 66437U 25259R   25340.69757738  .00150655  00000+0  25207-2 0  9994
2 66437  43.0007  82.6072 0002002 283.6406  76.4231 15.50622786  5235
STARLINK-34681          
1 66438U 25259S   25341.14814259  .00110720  00000+0  18628-2 0  9996
2 66438  43.0028  79.9688 0003271 285.7326  74.3173 15.50632823  5194
STARLINK-35327          
1 66439U 25259T   25340.63384667  .00142587  00000+0  23871-2 0  9997
2 66439  43.0013  82.9909 0002337 280.0229  80.0367 15.50639465  5223
STARLINK-35405          
1 66440U 25259U   25341.21221213  .00106099  00000+0  17892-2 0  9995
2 66440  43.0030  79.5918 0002348 257.1606 102.8992 15.50588739  5316
STARLINK-35426          
1 66441U 25259V   25340.56771696  .00126568  00000+0  21162-2 0  9996
2 66441  43.0000  83.3507 0001305 142.1834 217.9118 15.50742109  5219
STARLINK-34724          
1 66442U 25259W   25340.56737531  .00192258  00000+0  31841-2 0  9991
2 66442  43.0003  83.3503 0001422 255.0351 105.0352 15.50746054  5217
STARLINK-35219          
1 66443U 25259X   25340.56703181  .00166001  00000+0  27615-2 0  9997
2 66443  43.0012  83.3472 0001567 246.0575 114.0122 15.50724046  5101
STARLINK-35360          
1 66444U 25259Y   25340.63041347  .00145089  00000+0  24221-2 0  9998
2 66444  43.0010  82.9620 0003290 267.8962  92.1521 15.50706932  5222
STARLINK-34698          
1 66445U 25259Z   25340.56668804  .00172984  00000+0  28742-2 0  9990
2 66445  43.0011  83.3434 0001652 246.4478 113.6208 15.50730706  5101
STARLINK-34986          
1 66446U 25259AA  25340.63075505  .00154895  00000+0  25811-2 0  9994
2 66446  43.0015  82.9643 0003613 270.4402  89.6044 15.50717396  5229
STARLINK-34851          
1 66447U 25259AB  25340.69448280  .00115934  00000+0  19447-2 0  9994
2 66447  43.0023  82.5838 0004049 272.8522  87.1875 15.50690671  5124
