CCSDS_OMM_VERS = 2.0
CREATION_DATE  = 
ORIGINATOR     = 

OBJECT_NAME    = STARLINK-35501
OBJECT_ID      = 2025-259Q
CENTER_NAME    = EARTH
REF_FRAME      = TEME
TIME_SYSTEM    = UTC
MEAN_ELEMENT_THEORY = SGP/SGP4

EPOCH          = 2025-12-06T16:45:00.432288
MEAN_MOTION    = 15.50605966
ECCENTRICITY   = .00014143
INCLINATION    = 43.0008
RA_OF_ASC_NODE = 82.6107
ARG_OF_PERICENTER = 280.4896
MEAN_ANOMALY   = 79.5804

EPHEMERIS_TYPE = 0
CLASSIFICATION_TYPE = U
NORAD_CAT_ID   = 66436
ELEMENT_SET_NO = 999
REV_AT_EPOCH   = 523
BSTAR          = .23641253E-2
MEAN_MOTION_DOT = .141011E-2
MEAN_MOTION_DDOT = 0

CCSDS_OMM_VERS = 2.0
CREATION_DATE  = 
ORIGINATOR     = 

OBJECT_NAME    = STARLINK-35474
OBJECT_ID      = 2025-259R
CENTER_NAME    = EARTH
REF_FRAME      = TEME
TIME_SYSTEM    = UTC
MEAN_ELEMENT_THEORY = SGP/SGP4

EPOCH          = 2025-12-06T16:44:30.685632
MEAN_MOTION    = 15.50622786
ECCENTRICITY   = .00020021
INCLINATION    = 43.0007
RA_OF_ASC_NODE = 82.6072
ARG_OF_PERICENTER = 283.6406
MEAN_ANOMALY   = 76.4231

EPHEMERIS_TYPE = 0
CLASSIFICATION_TYPE = U
NORAD_CAT_ID   = 66437
ELEMENT_SET_NO = 999
REV_AT_EPOCH   = 523
BSTAR          = .25207389E-2
MEAN_MOTION_DOT = .150655E-2
MEAN_MOTION_DDOT = 0

CCSDS_OMM_VERS = 2.0
CREATION_DATE  = 
ORIGINATOR     = 

OBJECT_NAME    = STARLINK-34681
OBJECT_ID      = 2025-259S
CENTER_NAME    = EARTH
REF_FRAME      = TEME
TIME_SYSTEM    = UTC
MEAN_ELEMENT_THEORY = SGP/SGP4

EPOCH          = 2025-12-07T03:33:19.519776
MEAN_MOTION    = 15.50632823
ECCENTRICITY   = .00032717
INCLINATION    = 43.0028
RA_OF_ASC_NODE = 79.9688
ARG_OF_PERICENTER = 285.7326
MEAN_ANOMALY   = 74.3173

EPHEMERIS_TYPE = 0
CLASSIFICATION_TYPE = U
NORAD_CAT_ID   = 66438
ELEMENT_SET_NO = 999
REV_AT_EPOCH   = 519
BSTAR          = .18627532E-2
MEAN_MOTION_DOT = .11072E-2
MEAN_MOTION_DDOT = 0

CCSDS_OMM_VERS = 2.0
CREATION_DATE  = 
ORIGINATOR     = 

OBJECT_NAME    = STARLINK-35327
OBJECT_ID      = 2025-259T
CENTER_NAME    = EARTH
REF_FRAME      = TEME
TIME_SYSTEM    = UTC
MEAN_ELEMENT_THEORY = SGP/SGP4

EPOCH          = 2025-12-06T15:12:44.352288
MEAN_MOTION    = 15.50639465
ECCENTRICITY   = .00023373
INCLINATION    = 43.0013
RA_OF_ASC_NODE = 82.9909
ARG_OF_PERICENTER = 280.0229
MEAN_ANOMALY   = 80.0367

EPHEMERIS_TYPE = 0
CLASSIFICATION_TYPE = U
NORAD_CAT_ID   = 66439
ELEMENT_SET_NO = 999
REV_AT_EPOCH   = 522
BSTAR          = .23870781E-2
MEAN_MOTION_DOT = .142587E-2
MEAN_MOTION_DDOT = 0

CCSDS_OMM_VERS = 2.0
CREATION_DATE  = 
ORIGINATOR     = 

OBJECT_NAME    = STARLINK-35405
OBJECT_ID      = 2025-259U
CENTER_NAME    = EARTH
REF_FRAME      = TEME
TIME_SYSTEM    = UTC
MEAN_ELEMENT_THEORY = SGP/SGP4

EPOCH          = 2025-12-07T05:05:35.128032
MEAN_MOTION    = 15.50588739
ECCENTRICITY   = .0002348
INCLINATION    = 43.0030
RA_OF_ASC_NODE = 79.5918
ARG_OF_PERICENTER = 257.1606
MEAN_ANOMALY   = 102.8992

EPHEMERIS_TYPE = 0
CLASSIFICATION_TYPE = U
NORAD_CAT_ID   = 66440
ELEMENT_SET_NO = 999
REV_AT_EPOCH   = 531
BSTAR          = .17892471E-2
MEAN_MOTION_DOT = .106099E-2
MEAN_MOTION_DDOT = 0

CCSDS_OMM_VERS = 2.0
CREATION_DATE  = 
ORIGINATOR     = 

OBJECT_NAME    = STARLINK-35426
OBJECT_ID      = 2025-259V
CENTER_NAME    = EARTH
REF_FRAME      = TEME
TIME_SYSTEM    = UTC
MEAN_ELEMENT_THEORY = SGP/SGP4

EPOCH          = 2025-12-06T13:37:30.745344
MEAN_MOTION    = 15.50742109
ECCENTRICITY   = .00013055
INCLINATION    = 43.0000
RA_OF_ASC_NODE = 83.3507
ARG_OF_PERICENTER = 142.1834
MEAN_ANOMALY   = 217.9118

EPHEMERIS_TYPE = 0
CLASSIFICATION_TYPE = U
NORAD_CAT_ID   = 66441
ELEMENT_SET_NO = 999
REV_AT_EPOCH   = 521
BSTAR          = .21162366E-2
MEAN_MOTION_DOT = .126568E-2
MEAN_MOTION_DDOT = 0

CCSDS_OMM_VERS = 2.0
CREATION_DATE  = 
ORIGINATOR     = 

OBJECT_NAME    = STARLINK-34724
OBJECT_ID      = 2025-259W
CENTER_NAME    = EARTH
REF_FRAME      = TEME
TIME_SYSTEM    = UTC
MEAN_ELEMENT_THEORY = SGP/SGP4

EPOCH          = 2025-12-06T13:37:01.226784
MEAN_MOTION    = 15.50746054
ECCENTRICITY   = .00014223
INCLINATION    = 43.0003
RA_OF_ASC_NODE = 83.3503
ARG_OF_PERICENTER = 255.0351
MEAN_ANOMALY   = 105.0352

EPHEMERIS_TYPE = 0
CLASSIFICATION_TYPE = U
NORAD_CAT_ID   = 66442
ELEMENT_SET_NO = 999
REV_AT_EPOCH   = 521
BSTAR          = .31841465E-2
MEAN_MOTION_DOT = .192258E-2
MEAN_MOTION_DDOT = 0

CCSDS_OMM_VERS = 2.0
CREATION_DATE  = 
ORIGINATOR     = 

OBJECT_NAME    = STARLINK-35219
OBJECT_ID      = 2025-259X
CENTER_NAME    = EARTH
REF_FRAME      = TEME
TIME_SYSTEM    = UTC
MEAN_ELEMENT_THEORY = SGP/SGP4

EPOCH          = 2025-12-06T13:36:31.548384
MEAN_MOTION    = 15.50724046
ECCENTRICITY   = .00015671
INCLINATION    = 43.0012
RA_OF_ASC_NODE = 83.3472
ARG_OF_PERICENTER = 246.0575
MEAN_ANOMALY   = 114.0122

EPHEMERIS_TYPE = 0
CLASSIFICATION_TYPE = U
NORAD_CAT_ID   = 66443
ELEMENT_SET_NO = 999
REV_AT_EPOCH   = 510
BSTAR          = .27615281E-2
MEAN_MOTION_DOT = .166001E-2
MEAN_MOTION_DDOT = 0

CCSDS_OMM_VERS = 2.0
CREATION_DATE  = 
ORIGINATOR     = 

OBJECT_NAME    = STARLINK-35360
OBJECT_ID      = 2025-259Y
CENTER_NAME    = EARTH
REF_FRAME      = TEME
TIME_SYSTEM    = UTC
MEAN_ELEMENT_THEORY = SGP/SGP4

EPOCH          = 2025-12-06T15:07:47.723808
MEAN_MOTION    = 15.50706932
ECCENTRICITY   = .00032908
INCLINATION    = 43.0010
RA_OF_ASC_NODE = 82.9620
ARG_OF_PERICENTER = 267.8962
MEAN_ANOMALY   = 92.1521

EPHEMERIS_TYPE = 0
CLASSIFICATION_TYPE = U
NORAD_CAT_ID   = 66444
ELEMENT_SET_NO = 999
REV_AT_EPOCH   = 522
BSTAR          = .24220976E-2
MEAN_MOTION_DOT = .145089E-2
MEAN_MOTION_DDOT = 0

CCSDS_OMM_VERS = 2.0
CREATION_DATE  = 
ORIGINATOR     = 

OBJECT_NAME    = STARLINK-34698
OBJECT_ID      = 2025-259Z
CENTER_NAME    = EARTH
REF_FRAME      = TEME
TIME_SYSTEM    = UTC
MEAN_ELEMENT_THEORY = SGP/SGP4

EPOCH          = 2025-12-06T13:36:01.846656
MEAN_MOTION    = 15.50730706
ECCENTRICITY   = .00016523
INCLINATION    = 43.0011
RA_OF_ASC_NODE = 83.3434
ARG_OF_PERICENTER = 246.4478
MEAN_ANOMALY   = 113.6208

EPHEMERIS_TYPE = 0
CLASSIFICATION_TYPE = U
NORAD_CAT_ID   = 66445
ELEMENT_SET_NO = 999
REV_AT_EPOCH   = 510
BSTAR          = .28741918E-2
MEAN_MOTION_DOT = .172984E-2
MEAN_MOTION_DDOT = 0

CCSDS_OMM_VERS = 2.0
CREATION_DATE  = 
ORIGINATOR     = 

OBJECT_NAME    = STARLINK-34986
OBJECT_ID      = 2025-259AA
CENTER_NAME    = EARTH
REF_FRAME      = TEME
TIME_SYSTEM    = UTC
MEAN_ELEMENT_THEORY = SGP/SGP4

EPOCH          = 2025-12-06T15:08:17.236320
MEAN_MOTION    = 15.50717396
ECCENTRICITY   = .00036136
INCLINATION    = 43.0015
RA_OF_ASC_NODE = 82.9643
ARG_OF_PERICENTER = 270.4402
MEAN_ANOMALY   = 89.6044

EPHEMERIS_TYPE = 0
CLASSIFICATION_TYPE = U
NORAD_CAT_ID   = 66446
ELEMENT_SET_NO = 999
REV_AT_EPOCH   = 522
BSTAR          = .25811199E-2
MEAN_MOTION_DOT = .154895E-2
MEAN_MOTION_DDOT = 0

CCSDS_OMM_VERS = 2.0
CREATION_DATE  = 
ORIGINATOR     = 

OBJECT_NAME    = STARLINK-34851
OBJECT_ID      = 2025-259AB
CENTER_NAME    = EARTH
REF_FRAME      = TEME
TIME_SYSTEM    = UTC
MEAN_ELEMENT_THEORY = SGP/SGP4

EPOCH          = 2025-12-06T16:40:03.313920
MEAN_MOTION    = 15.50690671
ECCENTRICITY   = .00040491
INCLINATION    = 43.0023
RA_OF_ASC_NODE = 82.5838
ARG_OF_PERICENTER = 272.8522
MEAN_ANOMALY   = 87.1875

EPHEMERIS_TYPE = 0
CLASSIFICATION_TYPE = U
NORAD_CAT_ID   = 66447
ELEMENT_SET_NO = 999
REV_AT_EPOCH   = 512
BSTAR          = .19447268E-2
MEAN_MOTION_DOT = .115934E-2
MEAN_MOTION_DDOT = 0

